[Satellite]
VERSION=1.1
NAME=LEMUR-2-ANUBHAVTHAKUR
NICKNAME=LEMUR-2-ANUBHAVTHAKUR
TLE1=1 41873U 16062E   17185.98367575  .00001015  00000-0  58890-4 0  9991
TLE2=2 41873  51.6369   3.0562 0005708 308.9120 187.5017 15.21539053 33621
